satname,norad_id,inclination_deg,eccentricity,mean_motion_rev_per_day,perigee_km,apogee_km,l1,l2
STARLINK-1008,44714,53.0539,0.0001294,15.06408447,546.2895324674464,548.0818059742405,1 44714U 19074B   25294.84086448  .00001777  00000+0  13815-3 0  9997,2 44714  53.0539  89.9324 0001294  88.1811 271.9326 15.06408447327826
STARLINK-1010,44716,53.0466,0.0003695,15.92531788,292.73488306919717,297.66647961570834,1 44716U 19074D   25294.91667823  .00296884  44531-4  85869-3 0  9994,2 44716  53.0466  21.1586 0003695  44.2859 338.8955 15.92531788  6002
STARLINK-1011,44717,53.0469,0.0002481,15.80787768,326.54784149578154,329.8755317140758,1 44717U 19074E   25294.91667823  .00260895  00000+0  12906-2 0  9997,2 44717  53.0469  77.3853 0002481 242.6295 212.6610 15.80787768  5921
STARLINK-1012,44718,53.0537,0.0001257,15.0640315,546.331388558594,548.0724187589731,1 44718U 19074F   25294.81875264 -.00004099  00000+0 -25642-3 0  9993,2 44718  53.0537  90.0333 0001257  97.4753 262.6379 15.06403150327818
STARLINK-1017,44723,53.0514,0.0003453,15.13916166,521.8875487570349,526.654351687459,1 44723U 19074L   25294.71284647  .00057843  00000+0  31474-2 0  9999,2 44723  53.0514  87.6560 0003453 150.9048 209.2137 15.13916166327841
STARLINK-1019,44724,53.0528,0.0001544,15.06400665,546.1402463071463,548.2787933124637,1 44724U 19074M   25294.81507054  .00007998  00000+0  55522-3 0  9998,2 44724  53.0528  90.0516 0001544  86.1711 273.9454 15.06400665327813
STARLINK-1020,44725,53.0538,0.0001458,15.06390261,546.2316865597159,548.2511269031193,1 44725U 19074N   25294.82061529  .00002696  00000+0  19985-3 0  9995,2 44725  53.0538 110.0265 0001458  79.8671 280.2483 15.06390261327539
STARLINK-1031,44736,53.0501,0.0006637,15.45345235,425.8450542611863,434.88265829781267,1 44736U 19074Z   25294.91667823  .00151167  00000+0  30650-2 0  9995,2 44736  53.0501  81.6263 0006637 179.0026 238.4342 15.45345235  5887
STARLINK-1036,44741,53.0517,0.0001488,15.06398595,546.1853715580946,548.2463565704402,1 44741U 19074AE  25294.85008650  .00000963  00000+0  83565-4 0  9993,2 44741  53.0517 109.8935 0001488  87.9419 272.1741 15.06398595327543
STARLINK-1039,44744,53.0499,0.0007345,15.11971049,525.1153782940755,535.2637099874191,1 44744U 19074AH  25294.82255757  .00037987  00000+0  21933-2 0  9990,2 44744  53.0499 128.3861 0007345 115.9523 244.2226 15.11971049327281
STARLINK-1042,44747,53.0483,0.000321,15.42565841,436.3516169347913,440.7279234212456,1 44747U 19074AL  25294.61535391  .00027078  00000+0  62093-3 0  9998,2 44747  53.0483  38.3776 0003210  82.1833 277.9536 15.42565841328559
STARLINK-1043,44748,53.0531,0.0001333,15.06402856,546.2796569274769,548.1259525194155,1 44748U 19074AM  25294.82243926  .00000270  00000+0  37017-4 0  9996,2 44748  53.0531 130.0179 0001333  93.6094 266.5048 15.06402856327266
STARLINK-1046,44751,53.0528,0.0001428,15.06406107,546.2039038247958,548.181778027365,1 44751U 19074AQ  25294.83718602  .00001210  00000+0  10007-3 0  9993,2 44751  53.0528 129.9509 0001428  95.1180 264.9972 15.06406107327269
STARLINK-1047,44752,53.0703,0.0004457,15.28952264,475.8869169466989,481.99931816348817,1 44752U 19074AR  25294.75909534  .00015273  00000+0  54712-3 0  9996,2 44752  53.0703  73.2702 0004457 132.6823 227.4552 15.28952264328068
STARLINK-1048,44753,53.0526,0.0001274,15.06399851,546.3297251373951,548.0943040663151,1 44753U 19074AS  25294.66394263  .00001022  00000+0  87458-4 0  9995,2 44753  53.0526  90.7272 0001274  93.8867 266.2267 15.06399851327794
STARLINK-1053,44758,53.0422,0.0001178,15.59104781,389.4494084833923,391.04403968878705,1 44758U 19074AX  25294.60979838  .00071263  00000+0  89416-3 0  9990,2 44758  53.0422  53.0510 0001178   2.4871 357.6146 15.59104781328331
STARLINK-1054,44759,53.0374,0.0001836,15.84001191,317.908997811518,320.3682374183054,1 44759U 19074AY  25294.91667823  .00430501  00000+0  17955-2 0  9995,2 44759  53.0374  77.4302 0001836 276.9151 145.5997 15.84001191  5965
STARLINK-1056,44761,53.0357,0.0001868,15.96754613,282.1854363171442,284.6741976799749,1 44761U 19074BA  25294.91667823  .00449575  94153-4  10340-2 0  9997,2 44761  53.0357  64.0772 0001868   0.2121 214.1415 15.96754613  6003
STARLINK-1060,44765,53.0541,9.27e-05,15.60375978,385.94312106534926,387.19729778197507,1 44765U 19074BE  25294.83935134  .00056630  00000+0  67954-3 0  9998,2 44765  53.0541  98.2061 0000927  11.1729 348.9304 15.60375978327702
STARLINK-1063,44768,53.0522,0.0001377,15.06413027,546.2180173485585,548.1252473459072,1 44768U 19074BH  25294.82612272  .00008378  00000+0  58046-3 0  9993,2 44768  53.0522 130.0017 0001377  85.7460 274.3686 15.06413027327274
STARLINK-1067,44771,53.0535,0.0001422,15.06403473,546.2161306626012,548.1856967652611,1 44771U 19074BL  25294.81507315  .00000657  00000+0  62974-4 0  9995,2 44771  53.0535 130.0524 0001422  97.7219 262.3932 15.06403473327265
STARLINK-1068,44772,53.0519,0.0001183,15.0639353,546.4121165471424,548.0506587076561,1 44772U 19074BM  25294.80585912  .00005151  00000+0  36453-3 0  9990,2 44772  53.0519 110.0921 0001183  85.7367 274.3757 15.06393530327532
STARLINK-1112,44925,53.0511,0.0004502,15.53204138,404.32316900045316,410.4328467135265,1 44925U 20001M   25294.91667823  .00149587  00000+0  23027-2 0  9990,2 44925  53.0511 210.6110 0004502 121.8484  90.3861 15.53204138  5803
STARLINK-1114,44927,53.0538,0.0001515,15.06398658,546.1664800483941,548.2648619077008,1 44927U 20001P   25294.18109132  .00001035  00000+0  88375-4 0  9999,2 44927  53.0538 252.8986 0001515  93.2576 266.8587 15.06398658318821
STARLINK-1123,44930,53.054,0.0001426,15.06379893,546.2856201906152,548.2607471750007,1 44930U 20001S   25294.26217558 -.00000879  00000+0 -40143-4 0  9992,2 44930  53.0540 252.5337 0001426  83.9752 276.1399 15.06379893318834
STARLINK-1144,44933,53.0442,0.0012758,15.57780084,385.44329066377486,402.72328795397516,1 44933U 20001V   25294.91667823  .00106986  00000+0  13968-2 0  9998,2 44933  53.0442 188.0113 0012758  64.4332 327.0801 15.57780084  5832
STARLINK-1091,44940,53.035,0.0002017,15.94101034,289.47530857759375,292.1655660077986,1 44940U 20001AC  25294.91667823  .00347048  58049-4  92303-3 0  9994,2 44940  53.0350 166.7577 0002017 200.1738 168.2218 15.94101034  5998
STARLINK-1094,44941,53.0552,0.0001862,15.06392724,545.9443538663545,548.5233619738437,1 44941U 20001AD  25294.54047384 -.00001311  00000+0 -69155-4 0  9999,2 44941  53.0552 231.2852 0001862  93.7831 266.3371 15.06392724319151
STARLINK-1096,44942,52.9894,0.0006859,15.86187704,308.3930991534562,317.5719769357447,1 44942U 20001AE  25294.91667823  .00210628  00000+0  81157-3 0  9993,2 44942  52.9894 354.0658 0006859  11.0025 201.5015 15.86187704  6007
STARLINK-1122,44949,53.0529,0.0001335,15.06376476,546.3591128907974,548.2082002060961,1 44949U 20001AM  25294.23085920  .00001529  00000+0  12158-3 0  9990,2 44949  53.0529 232.6687 0001335 104.2008 255.9130 15.06376476319101
STARLINK-1080,44961,53.0541,0.000138,15.06400762,546.253524740302,548.1649202977178,1 44961U 20001AZ  25294.49440794  .00013761  00000+0  94086-3 0  9997,2 44961  53.0541 211.4908 0001380  98.9320 261.1825 15.06400762319438
STARLINK-1090,44968,53.0546,0.0001805,15.06389325,545.994244148782,548.4943067892264,1 44968U 20001BG  25294.16635002  .00005721  00000+0  40275-3 0  9994,2 44968  53.0546 212.9655 0001805  58.2237 301.8927 15.06389325319383
STARLINK-1107,44972,53.0077,0.000561,15.6472239,370.24931001144523,377.82524955336066,1 44972U 20001BL  25294.91667823  .00190280  00000+0  18830-2 0  9994,2 44972  53.0077 128.2522 0005610 192.9216 154.9173 15.64722390  5884
STARLINK-1132,45044,53.0535,9.65e-05,15.06396928,546.5526761474157,547.8892702362418,1 45044U 20006A   25293.99310965  .00000593  00000+0  58666-4 0  9999,2 45044  53.0535 173.7419 0000965  91.4595 268.6505 15.06396928315689
STARLINK-1131,45047,53.0543,0.0001842,15.06379623,545.9983505041901,548.5496719207204,1 45047U 20006D   25294.10191734  .00007628  00000+0  53075-3 0  9991,2 45047  53.0543 193.7926 0001842  86.3412 273.7787 15.06379623315415
STARLINK-1134,45048,53.0405,0.0011717,15.2653884,478.1255687184721,494.21138216962845,1 45048U 20006E   25294.79586414  .00037649  00000+0  14251-2 0  9998,2 45048  53.0405 169.8873 0011717 107.3100 252.9180 15.26538840315818
STARLINK-1156,45054,53.0532,0.0001881,15.06420801,545.8451605306363,548.4504526748797,1 45054U 20006L   25294.73582534  .00038079  00000+0  25601-2 0  9997,2 45054  53.0532 190.4084 0001881  80.9375 279.1827 15.06420801315512
STARLINK-1159,45057,53.0538,0.0001845,15.10421529,533.6380482513378,536.1889638880784,1 45057U 20006P   25294.91667823  .00023934  00000+0  14524-2 0  9991,2 45057  53.0538 189.5742 0001845  92.7872 100.0931 15.10421529  5443
STARLINK-1166,45060,53.0531,0.0001323,15.0639316,546.3162952447483,548.1487480201713,1 45060U 20006S   25294.69529318  .00012755  00000+0  87380-3 0  9996,2 45060  53.0531 190.5908 0001323  92.7995 267.3145 15.06393160315513
STARLINK-1169,45061,53.0536,0.0001223,15.06390005,546.3952174680107,548.0891652182127,1 45061U 20006T   25294.43726859  .00014132  00000+0  96601-3 0  9995,2 45061  53.0536 191.7504 0001223 105.8804 254.2320 15.06390005315478
STARLINK-1171,45062,53.0533,0.000109,15.26809965,484.6077061537362,486.10394758999337,1 45062U 20006U   25294.91667823  .01717943  00000+0  58915-1 0  9999,2 45062  53.0533 188.7953 0001090 102.8594 110.6307 15.26809965  5440
STARLINK-1133,45064,53.0536,0.0001405,15.06397971,546.2447641919243,548.1907888841315,1 45064U 20006W   25294.83350579  .00009689  00000+0  66851-3 0  9999,2 45064  53.0536 169.9668 0001405 102.3816 257.7330 15.06397971315812
STARLINK-1167,45071,53.0534,0.0001192,15.06388255,546.4220490666248,548.0730607445148,1 45071U 20006AD  25294.39488595  .00008814  00000+0  61002-3 0  9990,2 45071  53.0534 171.9387 0001192  72.8600 287.2519 15.06388255315748
